{
  "40 Eridani": {
    "components": [
      "40 Eridani A",
      "40 Eridani B",
      "40 Eridani C"
    ],
    "hierarchy": "triple",
    "wds_id": "04153-0739",
    "pairs": {
      "A-BC": {
        "primary": "40 Eridani A",
        "secondary": "40 Eridani B",
        "wds_comp": "A,BC",
        "raw": {
          "source": "Heintz (1974) / Gatewood & Gatewood (1978) via ORB6",
          "doi": null,
          "note": "Outer pair (A orbits BC barycenter). ORB6 grade ~3. Verify from ORB6 entry for WDS 04153-0739 comp A,BC.",
          "reliability": "UNRELIABLE",
          "reliability_note": "Kepler prediction (sep=489\") does not match WDS 2024 (sep=83.2\"). Orbit essentially undetermined (a_arcsec=418\" vs current sep=83.2\"). Do not use for CFG generation.",
          "orb_grade": 3,
          "period_yr": 8005.0,
          "period_yr_err": 500.0,
          "semi_major_axis_arcsec": 418.0,
          "semi_major_axis_arcsec_err": 30.0,
          "eccentricity": 0.339,
          "eccentricity_err": 0.02,
          "inclination_deg": 107.0,
          "inclination_err_deg": 10.0,
          "longitude_of_ascending_node_deg": 103.0,
          "longitude_of_ascending_node_err_deg": 10.0,
          "argument_of_periapsis_deg": 327.0,
          "argument_of_periapsis_err_deg": 20.0,
          "t_peri_yr": 4390.0,
          "t_peri_jd": 3324492.5,
          "t_peri_note": "HIGHLY UNCERTAIN. Very long period, poorly constrained."
        },
        "derived": {
          "semi_major_axis_au": 2094.1043,
          "semi_major_axis_m": 313273546462702.8,
          "mean_anomaly_at_b1950_deg": 250.2686,
          "mean_anomaly_at_j2000_deg": 252.5172,
          "note": "a_au = a_arcsec × dist_pc (small-angle); M from published T_peri"
        }
      },
      "B-C": {
        "primary": "40 Eridani B",
        "secondary": "40 Eridani C",
        "wds_comp": "BC",
        "raw": {
          "source": "Heintz (1974) / recent ORB6",
          "doi": null,
          "note": "Inner pair B-C. WDS 2024 sep=7.7\". ORB6 grade ~5. Verify from ORB6 entry for WDS 04153-0739 comp BC.",
          "orb_grade": 5,
          "period_yr": 247.9,
          "period_yr_err": 5.0,
          "semi_major_axis_arcsec": 6.93,
          "semi_major_axis_arcsec_err": 0.2,
          "eccentricity": 0.41,
          "eccentricity_err": 0.02,
          "inclination_deg": 107.6,
          "inclination_err_deg": 2.0,
          "longitude_of_ascending_node_deg": 151.3,
          "longitude_of_ascending_node_err_deg": 5.0,
          "argument_of_periapsis_deg": 329.0,
          "argument_of_periapsis_err_deg": 10.0,
          "t_peri_yr": 1849.0,
          "t_peri_jd": 2396392.2,
          "t_peri_note": "Approximate; verify from ORB6."
        },
        "derived": {
          "semi_major_axis_au": 34.718,
          "semi_major_axis_m": 5193745638723.757,
          "mean_anomaly_at_b1950_deg": 146.672,
          "mean_anomaly_at_j2000_deg": 219.282,
          "note": "a_au = a_arcsec × dist_pc (small-angle); M from published T_peri"
        },
        "barycenter_state_b1950": {
          "mass_A_msun": 0.573,
          "mass_B_msun": 0.2,
          "epoch_jd": 2433282.5,
          "epoch_label": "B1950.0",
          "icrs_x_km": 67494633843553.01,
          "icrs_y_km": 137602788944590.95,
          "icrs_z_km": -20479523712170.297,
          "icrs_vx_km_s": 31.237442034058297,
          "icrs_vy_km_s": -56.987724441230505,
          "icrs_vz_km_s": -75.4100380237174,
          "distance_pc": 5.007735116119533,
          "distance_km": 154522559818552.72,
          "note": "mass-weighted mean of component state vectors at B1950.0. Individual component positions are incorrect for short-period binaries due to orbital velocity in proper motion. Use this barycenter + Keplerian orbital elements for CFG placement."
        },
        "individual_states": {
          "b1950": {
            "40 Eridani B": {
              "icrs_x_km": 67493771234880.43,
              "icrs_y_km": 137601607979049.55,
              "icrs_z_km": -20480651799249.996,
              "icrs_vx_km_s": 31.017918584238082,
              "icrs_vy_km_s": -56.531716230482736,
              "icrs_vz_km_s": -75.93239070023526
            },
            "40 Eridani C": {
              "icrs_x_km": 67497105217399.945,
              "icrs_y_km": 137606172410867.08,
              "icrs_z_km": -20476291742686.965,
              "icrs_vx_km_s": 31.86637671779321,
              "icrs_vy_km_s": -58.294187965022864,
              "icrs_vz_km_s": -73.91349760549377
            }
          },
          "j2000": {
            "40 Eridani B": {
              "icrs_x_km": 67542987130880.72,
              "icrs_y_km": 137512669469341.98,
              "icrs_z_km": -20600070114036.76,
              "icrs_vx_km_s": 31.372068282959,
              "icrs_vy_km_s": -56.26122674766028,
              "icrs_vz_km_s": -75.403878755947
            },
            "40 Eridani C": {
              "icrs_x_km": 67546603409275.97,
              "icrs_y_km": 137513441250350.5,
              "icrs_z_km": -20594046855252.75,
              "icrs_vx_km_s": 30.851737830957788,
              "icrs_vy_km_s": -59.0691403333092,
              "icrs_vz_km_s": -75.4276843258796
            }
          }
        }
      }
    }
  },
  "Eta Cassiopeiae": {
    "components": [
      "Eta Cassiopeiae A",
      "Eta Cassiopeiae B"
    ],
    "hierarchy": "binary",
    "wds_id": "00491+5749",
    "raw": {
      "source": "Tokovinin (2021) / ORB6 recent",
      "doi": null,
      "note": "WDS 2023 sep=13.5\". ORB6 grade ~7. Verify from ORB6 entry for WDS 00491+5749 comp AB.",
      "orb_grade": 7,
      "period_yr": 480.0,
      "period_yr_err": 10.0,
      "semi_major_axis_arcsec": 11.985,
      "semi_major_axis_arcsec_err": 0.3,
      "eccentricity": 0.497,
      "eccentricity_err": 0.01,
      "inclination_deg": 34.76,
      "inclination_err_deg": 1.0,
      "longitude_of_ascending_node_deg": 98.94,
      "longitude_of_ascending_node_err_deg": 2.0,
      "argument_of_periapsis_deg": 85.16,
      "argument_of_periapsis_err_deg": 3.0,
      "t_peri_yr": 1889.6,
      "t_peri_jd": 2411221.4,
      "t_peri_note": "Approximate; verify from ORB6 entry.",
      "omega_correction_note": "ω corrected +180°: source published ω_primary; converted to ω_secondary for Thiele-Innes. WDS 2023 predicts sep=13.72\" PA=324° vs observed 13.5\"/328°."
    },
    "derived": {
      "semi_major_axis_au": 70.9877,
      "semi_major_axis_m": 10619602786144.375,
      "mean_anomaly_at_b1950_deg": 45.3,
      "mean_anomaly_at_j2000_deg": 82.8,
      "note": "a_au = a_arcsec × dist_pc (small-angle); M from published T_peri"
    },
    "barycenter_state_b1950": {
      "mass_A_msun": 0.972,
      "mass_B_msun": 0.576,
      "epoch_jd": 2433282.5,
      "epoch_label": "B1950.0",
      "icrs_x_km": 95127928912157.06,
      "icrs_y_km": 20646889539068.445,
      "icrs_z_km": 154717763079100.38,
      "icrs_vx_km_s": 10.251424575220328,
      "icrs_vy_km_s": 33.941766084959106,
      "icrs_vz_km_s": -0.07146358445929298,
      "distance_pc": 5.923042138328477,
      "distance_km": 182765983404666.97,
      "note": "mass-weighted mean of component state vectors at B1950.0. Individual component positions are incorrect for short-period binaries due to orbital velocity in proper motion. Use this barycenter + Keplerian orbital elements for CFG placement."
    },
    "individual_states": {
      "b1950": {
        "Eta Cassiopeiae A": {
          "icrs_x_km": 95128151180601.55,
          "icrs_y_km": 20650232150204.53,
          "icrs_z_km": 154717512980110.72,
          "icrs_vx_km_s": 11.978479972997011,
          "icrs_vy_km_s": 34.74777383484331,
          "icrs_vz_km_s": -0.03574511428775668
        },
        "Eta Cassiopeiae B": {
          "icrs_x_km": 95127553834157.0,
          "icrs_y_km": 20641248882776.3,
          "icrs_z_km": 154718185121145.4,
          "icrs_vx_km_s": 7.337018591472175,
          "icrs_vy_km_s": 32.581628007029515,
          "icrs_vz_km_s": -0.1317385028737605
        }
      },
      "j2000": {
        "Eta Cassiopeiae A": {
          "icrs_x_km": 95146811232844.64,
          "icrs_y_km": 20704175898202.52,
          "icrs_z_km": 154717512077408.53,
          "icrs_vx_km_s": 11.621728050369255,
          "icrs_vy_km_s": 33.76366866695941,
          "icrs_vz_km_s": 0.0210554961810165
        },
        "Eta Cassiopeiae B": {
          "icrs_x_km": 95139536700107.8,
          "icrs_y_km": 20694150649055.69,
          "icrs_z_km": 154717883599373.6,
          "icrs_vx_km_s": 7.9390374609065155,
          "icrs_vy_km_s": 34.2423054778336,
          "icrs_vz_km_s": -0.22758953303981522
        }
      }
    }
  }
}